CCSDS_OMM_VERS = 2.0
CREATION_DATE  = 
ORIGINATOR     = 

OBJECT_NAME    = JACK K
OBJECT_ID      = 2025-274K
CENTER_NAME    = EARTH
REF_FRAME      = TEME
TIME_SYSTEM    = UTC
MEAN_ELEMENT_THEORY = SGP/SGP4

EPOCH          = 2025-12-03T18:11:53.608704
MEAN_MOTION    = 14.92722518
ECCENTRICITY   = .00124169
INCLINATION    = 97.7384
RA_OF_ASC_NODE = 265.1232
ARG_OF_PERICENTER = 314.3342
MEAN_ANOMALY   = 45.6859

EPHEMERIS_TYPE = 0
CLASSIFICATION_TYPE = U
NORAD_CAT_ID   = 66659
ELEMENT_SET_NO = 999
REV_AT_EPOCH   = 106
BSTAR          = .50377954E-3
MEAN_MOTION_DOT = .5152E-4
MEAN_MOTION_DDOT = 0

CCSDS_OMM_VERS = 2.0
CREATION_DATE  = 
ORIGINATOR     = 

OBJECT_NAME    = K-HERO
OBJECT_ID      = 2025-274L
CENTER_NAME    = EARTH
REF_FRAME      = TEME
TIME_SYSTEM    = UTC
MEAN_ELEMENT_THEORY = SGP/SGP4

EPOCH          = 2025-12-04T00:36:56.502144
MEAN_MOTION    = 14.92879520
ECCENTRICITY   = .0013042
INCLINATION    = 97.7390
RA_OF_ASC_NODE = 265.3881
ARG_OF_PERICENTER = 313.8440
MEAN_ANOMALY   = 46.1701

EPHEMERIS_TYPE = 0
CLASSIFICATION_TYPE = U
NORAD_CAT_ID   = 66660
ELEMENT_SET_NO = 999
REV_AT_EPOCH   = 110
BSTAR          = .62849E-3
MEAN_MOTION_DOT = .6469E-4
MEAN_MOTION_DDOT = 0

CCSDS_OMM_VERS = 2.0
CREATION_DATE  = 
ORIGINATOR     = 

OBJECT_NAME    = SNUGLITE-III
OBJECT_ID      = 2025-274M
CENTER_NAME    = EARTH
REF_FRAME      = TEME
TIME_SYSTEM    = UTC
MEAN_ELEMENT_THEORY = SGP/SGP4

EPOCH          = 2025-12-03T18:09:48.994848
MEAN_MOTION    = 14.93022901
ECCENTRICITY   = .00137618
INCLINATION    = 97.7384
RA_OF_ASC_NODE = 265.1254
ARG_OF_PERICENTER = 315.3921
MEAN_ANOMALY   = 44.6190

EPHEMERIS_TYPE = 0
CLASSIFICATION_TYPE = U
NORAD_CAT_ID   = 66661
ELEMENT_SET_NO = 999
REV_AT_EPOCH   = 106
BSTAR          = .42363869E-3
MEAN_MOTION_DOT = .4358E-4
MEAN_MOTION_DDOT = 0

CCSDS_OMM_VERS = 2.0
CREATION_DATE  = 
ORIGINATOR     = 

OBJECT_NAME    = 2025-274N
OBJECT_ID      = 2025-274N
CENTER_NAME    = EARTH
REF_FRAME      = TEME
TIME_SYSTEM    = UTC
MEAN_ELEMENT_THEORY = SGP/SGP4

EPOCH          = 2025-12-03T18:09:21.232800
MEAN_MOTION    = 14.93083029
ECCENTRICITY   = .00141444
INCLINATION    = 97.7385
RA_OF_ASC_NODE = 265.1256
ARG_OF_PERICENTER = 314.7564
MEAN_ANOMALY   = 45.2503

EPHEMERIS_TYPE = 0
CLASSIFICATION_TYPE = U
NORAD_CAT_ID   = 66662
ELEMENT_SET_NO = 999
REV_AT_EPOCH   = 106
BSTAR          = .31726993E-3
MEAN_MOTION_DOT = .3254E-4
MEAN_MOTION_DDOT = 0

CCSDS_OMM_VERS = 2.0
CREATION_DATE  = 
ORIGINATOR     = 

OBJECT_NAME    = KSLV-II R/B
OBJECT_ID      = 2025-274P
CENTER_NAME    = EARTH
REF_FRAME      = TEME
TIME_SYSTEM    = UTC
MEAN_ELEMENT_THEORY = SGP/SGP4

EPOCH          = 2025-12-03T17:40:07.524480
MEAN_MOTION    = 14.97202130
ECCENTRICITY   = .00461454
INCLINATION    = 97.7399
RA_OF_ASC_NODE = 265.1649
ARG_OF_PERICENTER = 348.9678
MEAN_ANOMALY   = 11.0527

EPHEMERIS_TYPE = 0
CLASSIFICATION_TYPE = U
NORAD_CAT_ID   = 66663
ELEMENT_SET_NO = 999
REV_AT_EPOCH   = 106
BSTAR          = -.11329547E-3
MEAN_MOTION_DOT = -.1401E-4
MEAN_MOTION_DDOT = 0

CCSDS_OMM_VERS = 2.0
CREATION_DATE  = 
ORIGINATOR     = 

OBJECT_NAME    = SOYUZ-MS 28
OBJECT_ID      = 2025-275A
CENTER_NAME    = EARTH
REF_FRAME      = TEME
TIME_SYSTEM    = UTC
MEAN_ELEMENT_THEORY = SGP/SGP4

EPOCH          = 2025-12-03T21:33:39.276864
MEAN_MOTION    = 15.49284650
ECCENTRICITY   = .0003592
INCLINATION    = 51.6303
RA_OF_ASC_NODE = 186.2514
ARG_OF_PERICENTER = 201.3576
MEAN_ANOMALY   = 158.7263

EPHEMERIS_TYPE = 0
CLASSIFICATION_TYPE = U
NORAD_CAT_ID   = 66664
ELEMENT_SET_NO = 999
REV_AT_EPOCH   = 107
BSTAR          = .25253E-3
MEAN_MOTION_DOT = .13627E-3
MEAN_MOTION_DDOT = 0

CCSDS_OMM_VERS = 2.0
CREATION_DATE  = 
ORIGINATOR     = 

OBJECT_NAME    = KOMPSAT-7
OBJECT_ID      = 2025-279A
CENTER_NAME    = EARTH
REF_FRAME      = TEME
TIME_SYSTEM    = UTC
MEAN_ELEMENT_THEORY = SGP/SGP4

EPOCH          = 2025-12-01T20:35:16.060992
MEAN_MOTION    = 14.98310631
ECCENTRICITY   = .00097501
INCLINATION    = 97.6394
RA_OF_ASC_NODE = 281.9587
ARG_OF_PERICENTER = 255.3935
MEAN_ANOMALY   = 104.6207

EPHEMERIS_TYPE = 0
CLASSIFICATION_TYPE = U
NORAD_CAT_ID   = 66820
ELEMENT_SET_NO = 999
REV_AT_EPOCH   = 2
BSTAR          = .84407298E-4
MEAN_MOTION_DOT = .947E-5
MEAN_MOTION_DDOT = 0

CCSDS_OMM_VERS = 2.0
CREATION_DATE  = 
ORIGINATOR     = 

OBJECT_NAME    = DUMMY PAYLOAD
OBJECT_ID      = 2025-282A
CENTER_NAME    = EARTH
REF_FRAME      = TEME
TIME_SYSTEM    = UTC
MEAN_ELEMENT_THEORY = SGP/SGP4

EPOCH          = 2025-12-03T15:09:12.901248
MEAN_MOTION    = 14.36090880
ECCENTRICITY   = .08801968
INCLINATION    = 56.9533
RA_OF_ASC_NODE = 91.9802
ARG_OF_PERICENTER = 204.5050
MEAN_ANOMALY   = 151.1619

EPHEMERIS_TYPE = 0
CLASSIFICATION_TYPE = U
NORAD_CAT_ID   = 66877
ELEMENT_SET_NO = 999
REV_AT_EPOCH   = 7
BSTAR          = .14053244E-3
MEAN_MOTION_DOT = .737234E-2
MEAN_MOTION_DDOT = .7156601E-5

