JACK K                  
1 66659U 25274K   25337.75825936  .00005152  00000+0  50378-3 0  9995
2 66659  97.7384 265.1232 0012416 314.3342  45.6859 14.92722518  1062
K-HERO                  
1 66660U 25274L   25338.02565396  .00006469  00000+0  62849-3 0  9997
2 66660  97.7390 265.3881 0013042 313.8440  46.1701 14.92879520  1105
SNUGLITE-III            
1 66661U 25274M   25337.75681707  .00004358  00000+0  42364-3 0  9997
2 66661  97.7384 265.1254 0013761 315.3921  44.6190 14.93022901  1064
2025-274N               
1 66662U 25274N   25337.75649575  .00003254  00000+0  31727-3 0  9990
2 66662  97.7385 265.1256 0014144 314.7564  45.2503 14.93083029  1063
KSLV-II R/B             
1 66663U 25274P   25337.73619820 -.00001401  00000+0 -11330-3 0  9991
2 66663  97.7399 265.1649 0046145 348.9678  11.0527 14.97202130  1063
SOYUZ-MS 28             
1 66664U 25275A   25337.89837126  .00013627  00000+0  25253-3 0  9991
2 66664  51.6303 186.2514 0003592 201.3576 158.7263 15.49284650  1072
KOMPSAT-7               
1 66820U 25279A   25335.85782478  .00000947  00000+0  84407-4 0  9990
2 66820  97.6394 281.9587 0009750 255.3935 104.6207 14.98310631    23
DUMMY PAYLOAD           
1 66877U 25282A   25337.63139932  .00737234  71566-5  14053-3 0  9991
2 66877  56.9533  91.9802 0880196 204.5050 151.1619 14.36090880    74
